0 DRTS
1 27516U 02042B   13281.04713351 -.00000244  00000-0  00000+0 0  2597
2 27516 002.4486 071.1725 0002063 117.5015 295.9046 01.00270493 40613
0 DRTS
1 27516U 02042B   13282.83208567 -.00000249  00000-0  00000+0 0  2600
2 27516 002.4524 071.1509 0002078 119.2495 218.5106 01.00270031 40620
0 DRTS
1 27516U 02042B   13282.89448659  .00000000  00000-0  10000-3 0  2614
2 27516 002.4546 071.0957 0002107 094.4194 265.8804 01.00264351 40250
0 DRTS
1 27516U 02042B   13285.86283376 -.00000258  00000-0  00000+0 0  2629
2 27516 002.4600 071.1412 0002261 103.7502 248.0925 01.00272266 40651
0 DRTS
1 27516U 02042B   13286.87696425 -.00000259  00000-0  00000+0 0  2636
2 27516 002.4622 071.1326 0002277 105.2955 252.6420 01.00271924 40667
0 DRTS
1 27516U 02042B   13287.90084809 -.00000259  00000-0  00000+0 0  2649
2 27516 002.4645 071.1235 0002253 108.3154 259.2373 01.00271630 40686
0 DRTS
1 27516U 02042B   13289.01817594 -.00000258  00000-0  00000+0 0  2658
2 27516 002.4670 071.1136 0002250 112.1310 298.7681 01.00271301 40694
0 DRTS
1 27516U 02042B   13290.03349322 -.00000257  00000-0  00000+0 0  2661
2 27516 002.4691 071.1024 0002251 113.6701 303.7521 01.00271011 40704
0 DRTS
1 27516U 02042B   13291.50636108 -.00000254  00000-0  00000+0 0  2673
2 27516 002.4722 071.0855 0002287 114.0909 115.0285 01.00270676 40712
0 DRTS
1 27516U 02042B   13292.52179647 -.00000252  00000-0  00000+0 0  2685
2 27516 002.4743 071.0742 0002305 115.3502 120.3342 01.00270437 40723
0 DRTS
1 27516U 02042B   13293.53404310 -.00000250  00000-0  00000+0 0  2694
2 27516 002.4764 071.0627 0002316 116.1341 124.9631 01.00270181 40738
0 DRTS
1 27516U 02042B   13294.56415257 -.00000249  00000-0  00000+0 0  2700
2 27516 002.4786 071.0512 0002326 118.5108 134.4470 01.00269943 40745
